
# Worst residual: 155.62 km
# MJD 58629.000000 (2019 May 26  0:00)
C05GHG1 = C04W5Q1 = C073CX1
1 89983U 00000AAQ 19146.49919926  .00000000  00000-0  00000-0 0  4633
2 89983 027.1671 338.7704 7548453 076.8313 332.2225 00.45625536    04

# Worst residual: 86.96 km
# MJD 58630.000000 (2019 May 27  0:00)
C05GHG1 = C04W5Q1 = C073CX1
1 89983U 00000AAQ 19147.49919926  .00000000  00000-0  00000-0 0  4634
2 89983 027.1610 338.7299 7525815 077.7427 134.4360 00.45014831    01

# Worst residual: 81.71 km
# MJD 58631.000000 (2019 May 28  0:00)
C05GHG1 = C04W5Q1 = C073CX1
1 89983U 00000AAQ 19148.49919926  .00000000  00000-0  00000-0 0  4635
2 89983 027.1584 338.7309 7531528 078.2973 294.4787 00.45200778    00

# Worst residual: 91.05 km
# MJD 58632.000000 (2019 May 29  0:00)
C05GHG1 = C04W5Q1 = C073CX1
1 89983U 00000AAQ 19149.49919926  .00000000  00000-0  00000-0 0  4636
2 89983 027.1560 338.6843 7523792 079.4581 096.9603 00.45145438    01

# Worst residual: 74.94 km
# MJD 58633.000000 (2019 May 30  0:00)
C05GHG1 = C04W5Q1 = C073CX1
1 89983U 00000AAQ 19150.49919926  .00000000  00000-0  00000-0 0  4638
2 89983 027.1555 338.7092 7515027 079.9881 256.8191 00.45038382    00

# Worst residual: 191.06 km
# MJD 58634.000000 (2019 May 31  0:00)
C05GHG1 = C04W5Q1 = C073CX1
1 89983U 00000AAQ 19151.49919926  .00000000  00000-0  00000-0 0  4639
2 89983 027.1529 338.7121 7530986 080.9116 059.3565 00.45486637    09

# Worst residual: 88.16 km
# MJD 58635.000000 (2019 Jun  1  0:00)
C05GHG1 = C04W5Q1 = C073CX1
1 89983U 00000AAQ 19152.49919926  .00000000  00000-0  00000-0 0  4630
2 89983 027.1560 338.7232 7501412 081.6782 219.3925 00.44950925    09

# Worst residual: 140.13 km
# MJD 58636.000000 (2019 Jun  2  0:00)
C05GHG1 = C04W5Q1 = C073CX1
1 89983U 00000AAQ 19153.49919926  .00000000  00000-0  00000-0 0  4631
2 89983 027.1462 338.7336 7514589 082.5033 021.2354 00.45793400    03

# Worst residual: 89.82 km
# MJD 58637.000000 (2019 Jun  3  0:00)
C05GHG1 = C04W5Q1 = C073CX1
1 89983U 00000AAQ 19154.49919926  .00000000  00000-0  00000-0 0  4632
2 89983 027.1544 338.7450 7490752 083.3710 182.0647 00.44933378    07

# Worst residual: 134.49 km
# MJD 58638.000000 (2019 Jun  4  0:00)
C05GHG1 = C04W5Q1 = C073CX1
1 89983U 00000AAQ 19155.49919926  .00000000  00000-0  00000-0 0  4633
2 89983 027.1470 338.7770 7505998 084.1918 342.6977 00.45702252    04

# Worst residual: 87.73 km
# MJD 58639.000000 (2019 Jun  5  0:00)
C05GHG1 = C04W5Q1 = C073CX1
1 89983U 00000AAQ 19156.49919926  .00000000  00000-0  00000-0 0  4634
2 89983 027.1480 338.7671 7480676 085.0735 144.6899 00.44974732    03

# Worst residual: 148.32 km
# MJD 58640.000000 (2019 Jun  6  0:00)
C05GHG1 = C04W5Q1 = C073CX1
1 89983U 00000AAQ 19157.49919926  .00000000  00000-0  00000-0 0  4635
2 89983 027.1455 338.8464 7493251 085.6598 304.6844 00.45310465    08

# Worst residual: 83.75 km
# MJD 58641.000000 (2019 Jun  7  0:00)
C05GHG1 = C04W5Q1 = C073CX1
1 89983U 00000AAQ 19158.49919926  .00000000  00000-0  00000-0 0  4636
2 89983 027.1471 338.8309 7474055 086.7287 107.1489 00.45094132    03

# Worst residual: 89.92 km
# MJD 58642.000000 (2019 Jun  8  0:00)
C05GHG1 = C04W5Q1 = C073CX1
1 89983U 00000AAQ 19159.49919926  .00000000  00000-0  00000-0 0  4637
2 89983 027.1427 338.9659 7465053 087.1586 266.9569 00.45064247    05

# Worst residual: 161.64 km
# MJD 58643.000000 (2019 Jun  9  0:00)
C05GHG1 = C04W5Q1 = C073CX1
1 89983U 00000AAQ 19160.49919926  .00000000  00000-0  00000-0 0  4639
2 89983 027.1384 338.9220 7475415 088.1992 069.4884 00.45389113    04

# Worst residual: 92.49 km
# MJD 58644.000000 (2019 Jun 10  0:00)
C05GHG1 = C04W5Q1 = C073CX1
1 89983U 00000AAQ 19161.49919926  .00000000  00000-0  00000-0 0  4630
2 89983 027.1437 339.0210 7445934 088.8244 229.4595 00.44962826    08

# Worst residual: 171.74 km
# MJD 58645.000000 (2019 Jun 11  0:00)
C05GHG1 = C04W5Q1 = C073CX1
1 89983U 00000AAQ 19162.49919926  .00000000  00000-0  00000-0 0  4631
2 89983 027.1291 339.0537 7455373 089.6212 031.5542 00.45771236    08

# Worst residual: 94.25 km
# MJD 58646.000000 (2019 Jun 12  0:00)
C05GHG1 = C04W5Q1 = C073CX1
1 89983U 00000AAQ 19163.49919926  .00000000  00000-0  00000-0 0  4632
2 89983 027.1347 339.1097 7432420 090.4702 192.0269 00.44932821    01

# Worst residual: 148.50 km
# MJD 58647.000000 (2019 Jun 13  0:00)
C05GHG1 = C04W5Q1 = C073CX1
1 89983U 00000AAQ 19164.49919926  .00000000  00000-0  00000-0 0  4633
2 89983 027.1172 339.1829 7443289 091.2584 352.9876 00.45779001    03

# Worst residual: 100.29 km
# MJD 58648.000000 (2019 Jun 14  0:00)
C05GHG1 = C04W5Q1 = C073CX1
1 89983U 00000AAQ 19165.49919926  .00000000  00000-0  00000-0 0  4634
2 89983 027.1207 339.1991 7421742 092.1342 154.5933 00.44943074    06

# Worst residual: 145.15 km
# MJD 58649.000000 (2019 Jun 15  0:00)
C05GHG1 = C04W5Q1 = C073CX1
1 89983U 00000AAQ 19166.49919926  .00000000  00000-0  00000-0 0  4635
2 89983 027.1084 339.2951 7440901 092.7979 314.6479 00.45399737    02

# Worst residual: 97.26 km
# MJD 58650.000000 (2019 Jun 16  0:00)
C05GHG1 = C04W5Q1 = C073CX1
1 89983U 00000AAQ 19167.49919926  .00000000  00000-0  00000-0 0  4636
2 89983 027.1097 339.2910 7413676 093.8238 117.0281 00.45045020    09

# Worst residual: 81.00 km
# MJD 58651.000000 (2019 Jun 17  0:00)
C05GHG1 = C04W5Q1 = C073CX1
1 89983U 00000AAQ 19168.49919926  .00000000  00000-0  00000-0 0  4637
2 89983 027.1009 339.4143 7404902 094.2851 276.6848 00.45064634    03

# Worst residual: 117.83 km
# MJD 58652.000000 (2019 Jun 18  0:00)
C05GHG1 = C04W5Q1 = C073CX1
1 89983U 00000AAQ 19169.49919926  .00000000  00000-0  00000-0 0  4638
2 89983 027.0944 339.4345 7409242 095.4084 079.0898 00.45255452    07

# Worst residual: 98.98 km
# MJD 58653.000000 (2019 Jun 19  0:00)
C05GHG1 = C04W5Q1 = C073CX1
1 89983U 00000AAQ 19170.49919926  .00000000  00000-0  00000-0 0  4630
2 89983 027.0918 339.6149 7379453 095.8806 239.0315 00.44956308    07

# Worst residual: 186.65 km
# MJD 58654.000000 (2019 Jun 20  0:00)
C05GHG1 = C04W5Q1 = C073CX1
1 89983U 00000AAQ 19171.49919926  .00000000  00000-0  00000-0 0  4631
2 89983 027.0743 339.6753 7391349 096.6994 041.2015 00.45656595    05

# Worst residual: 94.64 km
# MJD 58655.000000 (2019 Jun 21  0:00)
C05GHG1 = C04W5Q1 = C073CX1
1 89983U 00000AAQ 19172.49919926  .00000000  00000-0  00000-0 0  4632
2 89983 027.0760 339.8260 7358139 097.4507 201.5669 00.44922709    06

# Worst residual: 127.00 km
# MJD 58656.000000 (2019 Jun 22  0:00)
C05GHG1 = C04W5Q1 = C073CX1
1 89983U 00000AAQ 19173.49919926  .00000000  00000-0  00000-0 0  4633
2 89983 027.0412 339.9400 7362141 098.2143 002.7040 00.45829024    01

# Worst residual: 94.27 km
# MJD 58657.000000 (2019 Jun 23  0:00)
C05GHG1 = C04W5Q1 = C073CX1
1 89983U 00000AAQ 19174.49919926  .00000000  00000-0  00000-0 0  4634
2 89983 027.0520 340.0519 7339894 099.0121 164.1119 00.44939245    05
